OBJECT_NAME,OBJECT_ID,EPOCH,MEAN_MOTION,ECCENTRICITY,INCLINATION,RA_OF_ASC_NODE,ARG_OF_PERICENTER,MEAN_ANOMALY,EPHEMERIS_TYPE,CLASSIFICATION_TYPE,NORAD_CAT_ID,ELEMENT_SET_NO,REV_AT_EPOCH,BSTAR,MEAN_MOTION_DOT,MEAN_MOTION_DDOT
GALAXY 17 (G-17),2007-016B,2026-07-11T19:59:48.131808,1.00270656,.0003548,3.0313,79.5891,33.0461,32.0248,0,U,31307,999,7005,0,-.205E-5,0
INTELSAT 11 (IS-11),2007-044B,2026-07-11T20:29:02.158080,0.99051085,.0004061,3.6269,78.3701,100.1995,75.7163,0,U,32253,999,6869,0,-.76E-6,0
WGS F1 (USA 195),2007-046A,2026-07-11T18:29:18.773088,1.00269581,.0000502,0.0136,77.5378,145.3852,301.5847,0,U,32258,999,5258,0,-.263E-5,0
SKYNET 5B,2007-056B,2026-07-11T20:31:16.942080,1.00273100,.000375,5.3128,73.2097,38.8056,150.6390,0,U,32294,999,6844,0,.138E-5,0
ASTRA 4A,2007-057A,2026-07-11T20:25:32.492064,1.00270347,.0002256,0.0478,282.1628,194.8863,123.8816,0,U,32299,999,5189,0,.36E-6,0
HORIZONS-2,2007-063B,2026-07-11T20:03:02.822112,1.00270275,.0003543,2.6629,80.3230,18.2184,58.1600,0,U,32388,999,6806,0,-.252E-5,0
THURAYA-3,2008-001A,2026-07-11T15:08:38.654016,1.00270971,.0002118,6.0292,35.8147,76.1836,108.3906,0,U,32404,999,6773,0,.1E-6,0
THOR 5,2008-006A,2026-07-11T20:23:55.147776,1.00270635,.0002288,0.0525,238.4216,240.9162,115.6348,0,U,32487,999,6756,0,-.5E-7,0
AMC-14,2008-011A,2026-07-11T20:11:10.735008,1.00420304,.0039746,24.0387,20.2220,8.2973,280.9918,0,U,32708,999,6841,0,-.168E-5,0
DIRECTV 11,2008-013A,2026-07-11T14:47:52.289088,1.00272228,.0000153,0.0131,264.0793,268.8149,239.4093,0,U,32729,999,4583,0,-.12E-5,0
ICO G1,2008-016A,2026-07-11T14:49:37.119936,1.00272818,.0002213,5.5292,36.0581,66.0722,316.9456,0,U,32763,999,6679,0,-.171E-5,0
VINASAT-1,2008-018A,2026-07-11T21:01:33.730176,1.00270787,.0001391,0.0367,289.4769,201.6289,246.0053,0,U,32767,999,6683,0,-.324E-5,0
STAR ONE C2,2008-018B,2026-07-11T20:05:32.580960,1.00272031,.0002655,1.3006,82.2267,43.5768,40.3146,0,U,32768,999,6690,0,-.274E-5,0
AMOS-3,2008-022A,2026-07-11T20:40:35.740128,1.00487121,.0002967,0.5162,85.8595,84.3515,127.3585,0,U,32794,999,8258,0,.31E-6,0
GALAXY 18 (G-18),2008-024A,2026-07-11T18:06:20.974752,1.00270290,.0002801,0.0279,47.9198,78.7436,311.5850,0,U,32951,999,4609,0,0,0
ZHONGXING-9,2008-028A,2026-07-11T20:50:27.295008,1.00270568,.0003309,0.8282,85.0477,19.9906,229.7212,0,U,33051,999,6628,0,-.245E-5,0
SKYNET 5C,2008-030A,2026-07-11T20:19:03.114912,1.00272518,.0004038,3.8493,76.7464,43.8105,96.1422,0,U,33055,999,6620,0,-.14E-5,0
TURKSAT 3A,2008-030B,2026-07-11T20:36:06.171264,1.00268561,.0004948,0.0258,67.5105,24.5665,188.7036,0,U,33056,999,5260,0,.15E-5,0
ECHOSTAR 11,2008-035A,2026-07-11T14:44:52.576224,1.00270493,.0002216,1.0656,83.8987,14.5509,302.4906,0,U,33207,999,5145,0,-.54E-6,0
SUPERBIRD-C2,2008-038A,2026-07-11T21:02:56.097888,1.00270371,.0006116,2.4219,80.9557,38.7355,261.8236,0,U,33274,999,10597,0,-.305E-5,0
INMARSAT 4-F3,2008-039A,2026-07-11T16:30:50.112000,1.00271674,.0002802,4.3137,31.6895,84.6761,322.9303,0,U,33278,999,4679,0,-.139E-5,0
NIMIQ 4,2008-044A,2026-07-11T20:00:40.548096,1.00273965,.0001937,0.0042,356.5097,98.0993,53.2855,0,U,33373,999,6523,0,-.216E-5,0
GALAXY 19 (G-19),2008-045A,2026-07-11T19:56:18.468384,1.00272153,.0002327,0.0536,244.6907,235.6584,11.4535,0,U,33376,999,6515,0,-.135E-5,0
ASTRA 1M,2008-057A,2026-07-11T19:38:22.633728,1.00267374,.0004445,0.3571,82.6989,39.7103,121.3129,0,U,33436,999,4598,0,.124E-5,0
EUTELSAT HOTBIRD 13C,2008-065A,2026-07-11T20:09:47.174112,1.00271936,.0003329,3.0110,78.8981,34.2118,68.7692,0,U,33459,999,4759,0,-.282E-5,0
EXPRESS-AM44,2009-007A,2026-07-11T20:21:02.924064,1.00271181,.0003746,3.5230,78.0968,26.5337,119.3604,0,U,33595,999,5253,0,-.89E-6,0
NSS-9,2009-008A,2026-07-11T17:50:59.947296,1.00270721,.0001846,1.3225,82.4146,18.9056,279.1349,0,U,33749,999,6376,0,.75E-6,0
TELSTAR 11N,2009-009A,2026-07-11T18:30:48.629088,1.00269957,.0002293,0.0427,264.4716,201.7190,63.6301,0,U,34111,999,4649,0,-.246E-5,0
WGS F2 (USA 204),2009-017A,2026-07-11T12:07:12.559872,1.00270809,.00004724,0.0175,26.4281,201.6145,300.6631,0,U,34713,999,4586,0,.74E-6,0
SES-7 (PROTOSTAR 2),2009-027A,2026-07-11T20:54:34.399008,1.00269824,.000049,0.0227,58.5956,178.5959,114.4683,0,U,34941,999,6287,0,-.341E-5,0
MEASAT-3A,2009-032A,2026-07-11T17:44:23.080128,1.00269914,.0002591,0.0409,308.8229,151.4580,255.4493,0,U,35362,999,827,0,-.106E-5,0
GOES 14,2009-033A,2026-07-11T19:17:44.664288,1.00099795,.0001876,1.7505,82.7359,40.0902,223.4941,0,U,35491,999,683,0,-.352E-5,0
FM-5,2009-034A,2026-07-11T19:59:33.156096,1.00271678,.0000614,0.0375,275.4581,56.6820,171.3190,0,U,35493,999,4689,0,-.196E-5,0
TERRESTAR-1,2009-035A,2026-07-11T16:27:05.472000,1.00273076,.0002596,5.1954,48.7777,55.8542,320.7346,0,U,35496,999,6238,0,-.56E-6,0
ASIASAT 5,2009-042A,2026-07-11T20:52:49.568160,1.00274282,.0001756,0.0112,295.5868,144.5449,263.3351,0,U,35696,999,6195,0,-.303E-5,0
JCSAT-12 (JCSAT-RA),2009-044A,2026-07-11T21:01:48.705024,1.00270588,.0000622,0.0384,283.3991,293.7164,160.1671,0,U,35755,999,6185,0,-.324E-5,0
OPTUS D3,2009-044B,2026-07-11T04:50:38.485248,1.00271566,.00031101,0.8915,268.3378,204.6913,44.8812,0,U,35756,999,6180,0,-.137E-5,0
NIMIQ 5,2009-050A,2026-07-11T20:03:25.286112,1.00271820,.0002528,0.0517,257.5818,208.3369,51.9697,0,U,35873,999,6159,0,-.253E-5,0
AMAZONAS 2,2009-054A,2026-07-11T20:03:32.774400,1.00270968,.0003129,1.8766,82.7323,30.1604,45.7399,0,U,35942,999,6143,0,-.257E-5,0
COMSATBW-1,2009-054B,2026-07-11T21:16:05.591712,1.00269004,.0002626,0.0619,186.2451,285.4791,200.1245,0,U,35943,999,6155,0,.29E-6,0
NSS-12,2009-058A,2026-07-11T20:40:20.764416,1.00268168,.0004397,0.0438,286.8192,149.4333,220.5828,0,U,36032,999,6116,0,.76E-6,0
THOR 6,2009-058B,2026-07-11T20:23:55.147776,1.00270117,.0001569,0.0111,291.9358,171.5246,131.4264,0,U,36033,999,6125,0,-.6E-7,0
INTELSAT 14 (IS-14),2009-064A,2026-07-11T20:11:17.030976,1.00271124,.0002222,0.0163,31.5081,84.4682,71.5991,0,U,36097,999,6085,0,-.269E-5,0
EUTELSAT 36B,2009-065A,2026-07-11T20:38:28.441824,1.00272408,.000572,0.5507,81.3043,31.0658,177.4918,0,U,36101,999,6095,0,.116E-5,0
INTELSAT 15 (IS-15),2009-067A,2026-07-11T20:48:27.484992,1.00271202,.0002098,0.0142,58.6359,60.4168,207.9824,0,U,36106,999,4147,0,-.181E-5,0
WGS F3 (USA 211),2009-068A,2026-07-11T18:04:21.167328,1.00271500,.0000686,0.3011,85.6404,96.8336,248.2892,0,U,36108,999,4683,0,.68E-6,0
DIRECTV 12,2009-075A,2026-07-11T19:54:41.123232,1.00271167,.0000386,0.0204,206.9725,17.1044,261.5921,0,U,36131,999,4680,0,-.99E-6,0
BEIDOU-2 G1,2010-001A,2026-07-11T21:04:10.979040,1.00273352,.0001894,4.3479,60.3172,291.1263,34.8286,0,U,36287,999,6041,0,-.28E-5,0
SDO,2010-005A,2026-07-11T05:56:48.706944,1.00277272,.00020204,34.6998,85.9778,56.2745,133.8056,0,U,36395,999,6030,0,-.102E-5,0
INTELSAT 16 (IS-16),2010-006A,2026-07-11T20:02:25.379808,1.00270944,.0002275,0.0114,32.2852,103.4470,18.4078,0,U,36397,999,5990,0,-.24E-5,0
EWS-G2 (GOES 15),2010-008A,2026-07-11T20:32:21.867360,1.00268192,.0005196,1.3426,82.5064,53.4833,165.2112,0,U,36411,999,5988,0,.25E-6,0
ECHOSTAR 14,2010-010A,2026-07-11T14:42:15.327360,1.00270519,.0001916,0.0468,260.1006,191.5374,299.5288,0,U,36499,999,4679,0,.6E-7,0
SES-1,2010-016A,2026-07-11T04:49:45.317280,1.00270296,.00024515,0.0449,283.9782,182.6005,153.9573,0,U,36516,999,5927,0,-.107E-5,0
ASTRA 3B,2010-021A,2026-07-11T13:40:09.952032,1.00275339,.0004275,1.5309,83.2608,22.8136,51.9731,0,U,36581,999,5911,0,.141E-5,0
COMSATBW-2,2010-021B,2026-07-11T20:27:54.766080,1.00272707,.0002369,0.0475,125.2154,5.3641,119.3651,0,U,36582,999,5920,0,.93E-6,0
BEIDOU-2 G3,2010-024A,2026-07-11T20:26:47.830272,1.00268897,.0007099,4.5707,61.3980,359.3300,255.3219,0,U,36590,999,5901,0,-.135E-5,0
BADR-5,2010-025A,2026-07-11T19:51:12.697056,1.00268801,.0005016,0.0448,125.9874,70.2473,61.7704,0,U,36592,999,5346,0,.158E-5,0
COMS 1,2010-032A,2026-07-11T08:19:04.481760,0.99168841,.00112649,4.8643,75.0643,14.7082,301.5980,0,U,36744,999,5132,0,-.239E-5,0
ARABSAT-5A,2010-032B,2026-07-11T19:51:12.647808,1.00272549,.0005699,0.1036,64.9516,55.2716,137.7862,0,U,36745,999,5889,0,.158E-5,0
ECHOSTAR 15,2010-034A,2026-07-11T16:24:35.711424,1.00271172,.000187,0.0545,270.7559,177.7655,328.3945,0,U,36792,999,5856,0,.5E-7,0
BEIDOU-2 IGSO-1,2010-036A,2026-07-11T20:26:37.726656,1.00264608,.0058925,54.3064,162.7376,225.2565,315.6066,0,U,36828,999,5834,0,-.89E-6,0
NILESAT 201,2010-037A,2026-07-11T20:22:10.316064,1.00271738,.0005467,0.0258,136.4535,1.5002,90.3533,0,U,36830,999,5862,0,-.53E-6,0
RASCOM-QAF 1R,2010-037B,2026-07-11T20:24:55.053216,1.00272557,.0006465,0.0260,79.8570,21.5780,137.4323,0,U,36831,999,5855,0,.23E-6,0
AEHF-1 (USA 214),2010-039A,2026-07-11T19:49:45.528096,1.00272875,.0003697,8.2790,67.7230,37.4198,151.9554,0,U,36868,999,5390,0,.144E-5,0
XM-5,2010-053A,2026-07-11T08:51:54.089856,1.00271440,.00018016,0.0631,266.8044,317.5891,82.6642,0,U,37185,999,5772,0,-.17E-6,0
BSAT-3B,2010-056B,2026-07-11T19:59:55.383360,1.00270918,.0002591,0.0680,230.0540,314.5089,154.9906,0,U,37207,999,5234,0,-.346E-5,0
BEIDOU-2 G4,2010-057A,2026-07-11T14:19:10.039872,1.00270060,.0005567,3.7036,68.7942,185.0953,50.3442,0,U,37210,999,5753,0,-.112E-5,0
SKYTERRA 1,2010-061A,2026-07-11T16:29:57.695712,1.00276028,.0002402,5.1752,50.8092,33.1428,351.8196,0,U,37218,999,5744,0,-.119E-5,0
HYLAS 1,2010-065A,2026-07-11T19:49:01.248960,1.00639112,.0001227,5.7033,72.7144,148.2569,33.9032,0,U,37237,999,713,0,.148E-5,0
INTELSAT 17 (IS-17),2010-065B,2026-07-11T21:20:42.883872,1.00271973,.0002648,0.0194,92.2512,24.0857,199.6252,0,U,37238,999,5349,0,.2E-7,0
BEIDOU-2 IGSO-2,2010-068A,2026-07-11T16:54:31.753152,1.00274707,.0057159,47.5028,271.5269,213.6994,166.3305,0,U,37256,999,5704,0,-.193E-5,0
EUTELSAT KA-SAT 9A,2010-069A,2026-07-11T20:26:39.884928,1.00270294,.0004337,0.0612,15.0232,125.7263,104.6574,0,U,37258,999,4425,0,.65E-6,0
HISPASAT 30W-5,2010-070A,2026-07-11T18:32:55.927392,1.00271150,.0005524,0.0245,119.9565,5.6057,52.3497,0,U,37264,999,5343,0,-.212E-5,0
